{"type": "FeatureCollection", "features": [ {"type": "Feature", "properties": {"norad_id": 44543, "name": "BEIDOU-3 M23 (C45)", "group": "beidou", "lat": 53.35929960255863, "lon": -65.85832737264334, "alt_km": 21517.352974006404, "timestamp": "2025-12-21T18:54:58.762157+00:00", "meta": {"OBJECT_NAME": "BEIDOU-3 M23 (C45)", "OBJECT_ID": "2019-061B", "EPOCH": "2025-12-21T09:48:50.565312", "MEAN_MOTION": 1.86227721, "ECCENTRICITY": 0.00060743, "INCLINATION": 54.3995, "RA_OF_ASC_NODE": 188.6918, "ARG_OF_PERICENTER": 25.4235, "MEAN_ANOMALY": 179.4087, "EPHEMERIS_TYPE": 0, "CLASSIFICATION_TYPE": "U", "NORAD_CAT_ID": 44543, "ELEMENT_SET_NO": 999, "REV_AT_EPOCH": 4248, "BSTAR": 0, "MEAN_MOTION_DOT": 9.5e-07, "MEAN_MOTION_DDOT": 0}, "tle": {"line1": "1 44543U 19061B   25355.40891858  .00000095  00000+0  00000+0 0  9992", "line2": "2 44543  54.3995 188.6918 0006074  25.4235 179.4087  1.86227721 42486"}}, "geometry": {"type": "Point", "coordinates": [-65.85832737264334, 53.35929960255863]}}, {"type": "Feature", "properties": {"norad_id": 44793, "name": "BEIDOU-3 M22 (C44)", "group": "beidou", "lat": -47.95892096341646, "lon": -107.3167247688227, "alt_km": 21533.453277381355, "timestamp": "2025-12-21T18:54:58.762168+00:00", "meta": {"OBJECT_NAME": "BEIDOU-3 M22 (C44)", "OBJECT_ID": "2019-078A", "EPOCH": "2025-12-21T08:24:25.549344", "MEAN_MOTION": 1.86232186, "ECCENTRICITY": 0.00060493, "INCLINATION": 54.1004, "RA_OF_ASC_NODE": 306.084, "ARG_OF_PERICENTER": 24.1688, "MEAN_ANOMALY": 335.8571, "EPHEMERIS_TYPE": 0, "CLASSIFICATION_TYPE": "U", "NORAD_CAT_ID": 44793, "ELEMENT_SET_NO": 999, "REV_AT_EPOCH": 4133, "BSTAR": 0, "MEAN_MOTION_DOT": -6.2e-07, "MEAN_MOTION_DDOT": 0}, "tle": {"line1": "1 44793U 19078A   25355.35029571 -.00000062  00000+0  00000+0 0  9991", "line2": "2 44793  54.1004 306.0840 0006049  24.1688 335.8571  1.86232186 41332"}}, "geometry": {"type": "Point", "coordinates": [-107.3167247688227, -47.95892096341646]}}, {"type": "Feature", "properties": {"norad_id": 44794, "name": "BEIDOU-3 M21 (C43)", "group": "beidou", "lat": -17.01892999146557, "lon": 138.81906628831115, "alt_km": 21542.08983546515, "timestamp": "2025-12-21T18:54:58.762179+00:00", "meta": {"OBJECT_NAME": "BEIDOU-3 M21 (C43)", "OBJECT_ID": "2019-078B", "EPOCH": "2025-12-16T15:43:55.727904", "MEAN_MOTION": 1.86227668, "ECCENTRICITY": 0.00041169, "INCLINATION": 54.078, "RA_OF_ASC_NODE": 306.2132, "ARG_OF_PERICENTER": 11.942, "MEAN_ANOMALY": 348.0544, "EPHEMERIS_TYPE": 0, "CLASSIFICATION_TYPE": "U", "NORAD_CAT_ID": 44794, "ELEMENT_SET_NO": 999, "REV_AT_EPOCH": 4125, "BSTAR": 0, "MEAN_MOTION_DOT": -9.5e-07, "MEAN_MOTION_DDOT": 0}, "tle": {"line1": "1 44794U 19078B   25350.65550611 -.00000095  00000+0  00000+0 0  9990", "line2": "2 44794  54.0780 306.2132 0004116  11.9420 348.0544  1.86227668 41256"}}, "geometry": {"type": "Point", "coordinates": [138.81906628831115, -17.01892999146557]}}, {"type": "Feature", "properties": {"norad_id": 44864, "name": "BEIDOU-3 M19 (C41)", "group": "beidou", "lat": 30.20045230984367, "lon": 91.40977704824603, "alt_km": 21543.535904393946, "timestamp": "2025-12-21T18:54:58.762190+00:00", "meta": {"OBJECT_NAME": "BEIDOU-3 M19 (C41)", "OBJECT_ID": "2019-090A", "EPOCH": "2025-12-21T08:18:55.694880", "MEAN_MOTION": 1.86231675, "ECCENTRICITY": 0.00183109, "INCLINATION": 56.3999, "RA_OF_ASC_NODE": 68.6763, "ARG_OF_PERICENTER": 285.0239, "MEAN_ANOMALY": 175.8266, "EPHEMERIS_TYPE": 0, "CLASSIFICATION_TYPE": "U", "NORAD_CAT_ID": 44864, "ELEMENT_SET_NO": 999, "REV_AT_EPOCH": 4092, "BSTAR": 0, "MEAN_MOTION_DOT": -3.6e-07, "MEAN_MOTION_DDOT": 0}, "tle": {"line1": "1 44864U 19090A   25355.34647795 -.00000036  00000+0  00000+0 0  9998", "line2": "2 44864  56.3999  68.6763 0018310 285.0239 175.8266  1.86231675 40926"}}, "geometry": {"type": "Point", "coordinates": [91.40977704824603, 30.20045230984367]}}, {"type": "Feature", "properties": {"norad_id": 44865, "name": "BEIDOU-3 M20 (C42)", "group": "beidou", "lat": 42.00277397646569, "lon": -147.99392306832965, "alt_km": 21565.49316369583, "timestamp": "2025-12-21T18:54:58.762201+00:00", "meta": {"OBJECT_NAME": "BEIDOU-3 M20 (C42)", "OBJECT_ID": "2019-090B", "EPOCH": "2025-12-21T01:49:05.066976", "MEAN_MOTION": 1.86231552, "ECCENTRICITY": 0.00154797, "INCLINATION": 56.4014, "RA_OF_ASC_NODE": 68.7196, "ARG_OF_PERICENTER": 297.2086, "MEAN_ANOMALY": 71.7471, "EPHEMERIS_TYPE": 0, "CLASSIFICATION_TYPE": "U", "NORAD_CAT_ID": 44865, "ELEMENT_SET_NO": 999, "REV_AT_EPOCH": 4090, "BSTAR": 0, "MEAN_MOTION_DOT": -3.8e-07, "MEAN_MOTION_DDOT": 0}, "tle": {"line1": "1 44865U 19090B   25355.07575309 -.00000038  00000+0  00000+0 0  9992", "line2": "2 44865  56.4014  68.7196 0015479 297.2086  71.7471  1.86231552 40909"}}, "geometry": {"type": "Point", "coordinates": [-147.99392306832965, 42.00277397646569]}}, {"type": "Feature", "properties": {"norad_id": 45344, "name": "BEIDOU-3 G2 (C60)", "group": "beidou", "lat": 1.9614788034600747, "lon": 94.35059748674193, "alt_km": 35794.30277791461, "timestamp": "2025-12-21T18:54:58.762212+00:00", "meta": {"OBJECT_NAME": "BEIDOU-3 G2 (C60)", "OBJECT_ID": "2020-017A", "EPOCH": "2025-12-19T13:38:45.370752", "MEAN_MOTION": 1.00273166, "ECCENTRICITY": 0.0002079, "INCLINATION": 2.5096, "RA_OF_ASC_NODE": 44.0024, "ARG_OF_PERICENTER": 233.0917, "MEAN_ANOMALY": 96.0359, "EPHEMERIS_TYPE": 0, "CLASSIFICATION_TYPE": "U", "NORAD_CAT_ID": 45344, "ELEMENT_SET_NO": 999, "REV_AT_EPOCH": 2145, "BSTAR": 0, "MEAN_MOTION_DOT": -1.18e-06, "MEAN_MOTION_DDOT": 0}, "tle": {"line1": "1 45344U 20017A   25353.56858068 -.00000118  00000+0  00000+0 0  9993", "line2": "2 45344   2.5096  44.0024 0002079 233.0917  96.0359  1.00273166 21451"}}, "geometry": {"type": "Point", "coordinates": [94.35059748674193, 1.9614788034600747]}}, {"type": "Feature", "properties": {"norad_id": 45807, "name": "BEIDOU-3 G3 (C61)", "group": "beidou", "lat": 1.7348348715390258, "lon": 124.96388463228769, "alt_km": 35795.2550051386, "timestamp": "2025-12-21T18:54:58.762224+00:00", "meta": {"OBJECT_NAME": "BEIDOU-3 G3 (C61)", "OBJECT_ID": "2020-040A", "EPOCH": "2025-12-21T13:52:43.971744", "MEAN_MOTION": 1.00269819, "ECCENTRICITY": 0.0006499, "INCLINATION": 2.0115, "RA_OF_ASC_NODE": 66.6552, "ARG_OF_PERICENTER": 309.2812, "MEAN_ANOMALY": 33.2123, "EPHEMERIS_TYPE": 0, "CLASSIFICATION_TYPE": "U", "NORAD_CAT_ID": 45807, "ELEMENT_SET_NO": 999, "REV_AT_EPOCH": 2028, "BSTAR": 0, "MEAN_MOTION_DOT": -3.32e-06, "MEAN_MOTION_DDOT": 0}, "tle": {"line1": "1 45807U 20040A   25355.57828671 -.00000332  00000+0  00000+0 0  9991", "line2": "2 45807   2.0115  66.6552 0006499 309.2812  33.2123  1.00269819 20280"}}, "geometry": {"type": "Point", "coordinates": [124.96388463228769, 1.7348348715390258]}}, {"type": "Feature", "properties": {"norad_id": 56564, "name": "BEIDOU-3 G4 (C62)", "group": "beidou", "lat": -0.6218068159465878, "lon": 174.39715710503833, "alt_km": 35775.061790262625, "timestamp": "2025-12-21T18:54:58.762236+00:00", "meta": {"OBJECT_NAME": "BEIDOU-3 G4 (C62)", "OBJECT_ID": "2023-066A", "EPOCH": "2025-12-21T15:17:44.488608", "MEAN_MOTION": 1.0027139, "ECCENTRICITY": 0.00026846, "INCLINATION": 0.7966, "RA_OF_ASC_NODE": 302.7288, "ARG_OF_PERICENTER": 226.7052, "MEAN_ANOMALY": 310.5154, "EPHEMERIS_TYPE": 0, "CLASSIFICATION_TYPE": "U", "NORAD_CAT_ID": 56564, "ELEMENT_SET_NO": 999, "REV_AT_EPOCH": 961, "BSTAR": 0, "MEAN_MOTION_DOT": -8.8e-07, "MEAN_MOTION_DDOT": 0}, "tle": {"line1": "1 56564U 23066A   25355.63732047 -.00000088  00000+0  00000+0 0  9990", "line2": "2 56564   0.7966 302.7288 0002684 226.7052 310.5154  1.00271390  9618"}}, "geometry": {"type": "Point", "coordinates": [174.39715710503833, -0.6218068159465878]}}, {"type": "Feature", "properties": {"norad_id": 58654, "name": "BEIDOU-3 M28 (C50)", "group": "beidou", "lat": 25.374101756527462, "lon": -130.62606341542516, "alt_km": 21529.211155115157, "timestamp": "2025-12-21T18:54:58.762247+00:00", "meta": {"OBJECT_NAME": "BEIDOU-3 M28 (C50)", "OBJECT_ID": "2023-207A", "EPOCH": "2025-12-18T08:16:11.764704", "MEAN_MOTION": 1.86229821, "ECCENTRICITY": 0.00026501, "INCLINATION": 55.5892, "RA_OF_ASC_NODE": 68.4116, "ARG_OF_PERICENTER": 272.4264, "MEAN_ANOMALY": 87.5728, "EPHEMERIS_TYPE": 0, "CLASSIFICATION_TYPE": "U", "NORAD_CAT_ID": 58654, "ELEMENT_SET_NO": 999, "REV_AT_EPOCH": 1347, "BSTAR": 0, "MEAN_MOTION_DOT": -6.6e-07, "MEAN_MOTION_DDOT": 0}, "tle": {"line1": "1 58654U 23207A   25352.34458061 -.00000066  00000+0  00000+0 0  9991", "line2": "2 58654  55.5892  68.4116 0002650 272.4264  87.5728  1.86229821 13471"}}, "geometry": {"type": "Point", "coordinates": [-130.62606341542516, 25.374101756527462]}}, {"type": "Feature", "properties": {"norad_id": 58655, "name": "BEIDOU-3 M26 (C48)", "group": "beidou", "lat": -53.05369056834801, "lon": 2.8096861591839875, "alt_km": 21523.413769886818, "timestamp": "2025-12-21T18:54:58.762257+00:00", "meta": {"OBJECT_NAME": "BEIDOU-3 M26 (C48)", "OBJECT_ID": "2023-207B", "EPOCH": "2025-12-21T08:44:02.320800", "MEAN_MOTION": 1.8623129, "ECCENTRICITY": 0.00041111, "INCLINATION": 55.5938, "RA_OF_ASC_NODE": 68.2956, "ARG_OF_PERICENTER": 259.2953, "MEAN_ANOMALY": 100.7044, "EPHEMERIS_TYPE": 0, "CLASSIFICATION_TYPE": "U", "NORAD_CAT_ID": 58655, "ELEMENT_SET_NO": 999, "REV_AT_EPOCH": 1351, "BSTAR": 0, "MEAN_MOTION_DOT": -3.7e-07, "MEAN_MOTION_DDOT": 0}, "tle": {"line1": "1 58655U 23207B   25355.36391575 -.00000037  00000+0  00000+0 0  9991", "line2": "2 58655  55.5938  68.2956 0004111 259.2953 100.7044  1.86231290 13512"}}, "geometry": {"type": "Point", "coordinates": [2.8096861591839875, -53.05369056834801]}}]}